STARLINK-31739          
1 59766U 24091P   26068.28389085 -.00001053  00000+0 -23421-4 0  9990
2 59766  53.1623  25.8419 0001211  82.7777 277.3361 15.30194066102981
FLOCK 4BE-27            
1 60513U 24149AX  26068.75339182  .00011439  00000+0  36576-3 0  9992
2 60513  97.3862 150.6783 0002732 305.8980  54.2008 15.32593322 86906
